{
  "type": "FeatureCollection",
  "features": [
    {
      "type": "Feature",
      "properties": {
        "norad_id": 31089,
        "name": "FENGYUN 1C DEB",
        "group": "fengyun-1c-debris",
        "lat": 73.02206735559459,
        "lon": 93.9546677863832,
        "alt_km": 1052.4744688669343,
        "timestamp": "2025-12-08T19:31:49.089342+00:00",
        "meta_object_name": "FENGYUN 1C DEB",
        "meta_object_id": "1999-025BGK",
        "meta_epoch": "2025-12-07T21:25:32.147616",
        "meta_mean_motion": 13.88305057,
        "meta_eccentricity": 0.02058957,
        "meta_inclination": 98.9488,
        "meta_ra_of_asc_node": 124.1407,
        "meta_arg_of_pericenter": 224.7678,
        "meta_mean_anomaly": 291.3696,
        "meta_ephemeris_type": 0,
        "meta_classification_type": "U",
        "meta_norad_cat_id": 31089,
        "meta_element_set_no": 999,
        "meta_rev_at_epoch": 67992,
        "meta_bstar": 0.0012224374,
        "meta_mean_motion_dot": 1.69e-05,
        "meta_mean_motion_ddot": 0,
        "tle_line1": "1 31089U 99025BGK 25341.89273319  .00001690  00000+0  12224-2 0  9991",
        "tle_line2": "2 31089  98.9488 124.1407 0205895 224.7678 291.3696 13.88305057679922"
      },
      "geometry": {
        "type": "Point",
        "coordinates": [
          93.9546677863832,
          73.02206735559459
        ]
      }
    },
    {
      "type": "Feature",
      "properties": {
        "norad_id": 31090,
        "name": "FENGYUN 1C DEB",
        "group": "fengyun-1c-debris",
        "lat": -81.00407554034449,
        "lon": 178.19174079008076,
        "alt_km": 496.0274484270867,
        "timestamp": "2025-12-08T19:31:49.089352+00:00",
        "meta_object_name": "FENGYUN 1C DEB",
        "meta_object_id": "1999-025BGL",
        "meta_epoch": "2025-12-08T05:49:34.030272",
        "meta_mean_motion": 15.32633337,
        "meta_eccentricity": 0.00564213,
        "meta_inclination": 98.9833,
        "meta_ra_of_asc_node": 85.3218,
        "meta_arg_of_pericenter": 148.3949,
        "meta_mean_anomaly": 212.0697,
        "meta_ephemeris_type": 0,
        "meta_classification_type": "U",
        "meta_norad_cat_id": 31090,
        "meta_element_set_no": 999,
        "meta_rev_at_epoch": 769,
        "meta_bstar": 0.0020232243,
        "meta_mean_motion_dot": 0.0006746,
        "meta_mean_motion_ddot": 0,
        "tle_line1": "1 31090U 99025BGL 25342.24275498  .00067460  00000+0  20232-2 0  9998",
        "tle_line2": "2 31090  98.9833  85.3218 0056421 148.3949 212.0697 15.32633337  7693"
      },
      "geometry": {
        "type": "Point",
        "coordinates": [
          178.19174079008076,
          -81.00407554034449
        ]
      }
    },
    {
      "type": "Feature",
      "properties": {
        "norad_id": 31091,
        "name": "FENGYUN 1C DEB",
        "group": "fengyun-1c-debris",
        "lat": 80.59562485059877,
        "lon": -118.70750435304839,
        "alt_km": 1115.2094418890256,
        "timestamp": "2025-12-08T19:31:49.089361+00:00",
        "meta_object_name": "FENGYUN 1C DEB",
        "meta_object_id": "1999-025BGM",
        "meta_epoch": "2025-12-08T04:55:13.896480",
        "meta_mean_motion": 13.54137581,
        "meta_eccentricity": 0.02908791,
        "meta_inclination": 99.224,
        "meta_ra_of_asc_node": 319.5574,
        "meta_arg_of_pericenter": 340.5035,
        "meta_mean_anomaly": 18.5161,
        "meta_ephemeris_type": 0,
        "meta_classification_type": "U",
        "meta_norad_cat_id": 31091,
        "meta_element_set_no": 999,
        "meta_rev_at_epoch": 61578,
        "meta_bstar": 0.0015251289,
        "meta_mean_motion_dot": 1.314e-05,
        "meta_mean_motion_ddot": 0,
        "tle_line1": "1 31091U 99025BGM 25342.20502195  .00001314  00000+0  15251-2 0  9993",
        "tle_line2": "2 31091  99.2240 319.5574 0290879 340.5035  18.5161 13.54137581615788"
      },
      "geometry": {
        "type": "Point",
        "coordinates": [
          -118.70750435304839,
          80.59562485059877
        ]
      }
    },
    {
      "type": "Feature",
      "properties": {
        "norad_id": 31092,
        "name": "FENGYUN 1C DEB",
        "group": "fengyun-1c-debris",
        "lat": -19.902534197096944,
        "lon": -84.80373056247885,
        "alt_km": 940.2271806274457,
        "timestamp": "2025-12-08T19:31:49.089370+00:00",
        "meta_object_name": "FENGYUN 1C DEB",
        "meta_object_id": "1999-025BGN",
        "meta_epoch": "2025-11-15T07:00:52.552224",
        "meta_mean_motion": 13.46401433,
        "meta_eccentricity": 0.03278725,
        "meta_inclination": 99.7115,
        "meta_ra_of_asc_node": 75.9227,
        "meta_arg_of_pericenter": 204.4209,
        "meta_mean_anomaly": 154.1084,
        "meta_ephemeris_type": 0,
        "meta_classification_type": "U",
        "meta_norad_cat_id": 31092,
        "meta_element_set_no": 999,
        "meta_rev_at_epoch": 91512,
        "meta_bstar": 0.0042000132,
        "meta_mean_motion_dot": 3.457e-05,
        "meta_mean_motion_ddot": 0,
        "tle_line1": "1 31092U 99025BGN 25319.29227491  .00003457  00000+0  42000-2 0  9992",
        "tle_line2": "2 31092  99.7115  75.9227 0327872 204.4209 154.1084 13.46401433915121"
      },
      "geometry": {
        "type": "Point",
        "coordinates": [
          -84.80373056247885,
          -19.902534197096944
        ]
      }
    },
    {
      "type": "Feature",
      "properties": {
        "norad_id": 31093,
        "name": "FENGYUN 1C DEB",
        "group": "fengyun-1c-debris",
        "lat": -49.34004028981173,
        "lon": -7.979611310882779,
        "alt_km": 816.0122988102194,
        "timestamp": "2025-12-08T19:31:49.089379+00:00",
        "meta_object_name": "FENGYUN 1C DEB",
        "meta_object_id": "1999-025BGP",
        "meta_epoch": "2025-12-05T19:05:51.065952",
        "meta_mean_motion": 13.80620951,
        "meta_eccentricity": 0.02081596,
        "meta_inclination": 98.5954,
        "meta_ra_of_asc_node": 179.4149,
        "meta_arg_of_pericenter": 242.0633,
        "meta_mean_anomaly": 115.9311,
        "meta_ephemeris_type": 0,
        "meta_classification_type": "U",
        "meta_norad_cat_id": 31093,
        "meta_element_set_no": 999,
        "meta_rev_at_epoch": 94411,
        "meta_bstar": 0.00075404882,
        "meta_mean_motion_dot": 8.92e-06,
        "meta_mean_motion_ddot": 0,
        "tle_line1": "1 31093U 99025BGP 25339.79572993  .00000892  00000+0  75405-3 0  9996",
        "tle_line2": "2 31093  98.5954 179.4149 0208159 242.0633 115.9311 13.80620951944113"
      },
      "geometry": {
        "type": "Point",
        "coordinates": [
          -7.979611310882779,
          -49.34004028981173
        ]
      }
    },
    {
      "type": "Feature",
      "properties": {
        "norad_id": 31094,
        "name": "FENGYUN 1C DEB",
        "group": "fengyun-1c-debris",
        "lat": 51.42855984294251,
        "lon": -160.4945979520115,
        "alt_km": 805.0288180735779,
        "timestamp": "2025-12-08T19:31:49.089389+00:00",
        "meta_object_name": "FENGYUN 1C DEB",
        "meta_object_id": "1999-025BGQ",
        "meta_epoch": "2025-12-07T14:10:08.995296",
        "meta_mean_motion": 14.02010329,
        "meta_eccentricity": 0.01064039,
        "meta_inclination": 98.8558,
        "meta_ra_of_asc_node": 209.5908,
        "meta_arg_of_pericenter": 61.2208,
        "meta_mean_anomaly": 299.9596,
        "meta_ephemeris_type": 0,
        "meta_classification_type": "U",
        "meta_norad_cat_id": 31094,
        "meta_element_set_no": 999,
        "meta_rev_at_epoch": 95547,
        "meta_bstar": 0.0022287642,
        "meta_mean_motion_dot": 3.531e-05,
        "meta_mean_motion_ddot": 0,
        "tle_line1": "1 31094U 99025BGQ 25341.59038189  .00003531  00000+0  22288-2 0  9995",
        "tle_line2": "2 31094  98.8558 209.5908 0106403  61.2208 299.9596 14.02010329955479"
      },
      "geometry": {
        "type": "Point",
        "coordinates": [
          -160.4945979520115,
          51.42855984294251
        ]
      }
    },
    {
      "type": "Feature",
      "properties": {
        "norad_id": 31095,
        "name": "FENGYUN 1C DEB",
        "group": "fengyun-1c-debris",
        "lat": 47.45100718754591,
        "lon": 116.5953710618604,
        "alt_km": 1566.9585998608072,
        "timestamp": "2025-12-08T19:31:49.089398+00:00",
        "meta_object_name": "FENGYUN 1C DEB",
        "meta_object_id": "1999-025BGR",
        "meta_epoch": "2025-12-07T04:40:01.104672",
        "meta_mean_motion": 13.06662639,
        "meta_eccentricity": 0.04998819,
        "meta_inclination": 98.5612,
        "meta_ra_of_asc_node": 124.7436,
        "meta_arg_of_pericenter": 205.1307,
        "meta_mean_anomaly": 152.4705,
        "meta_ephemeris_type": 0,
        "meta_classification_type": "U",
        "meta_norad_cat_id": 31095,
        "meta_element_set_no": 999,
        "meta_rev_at_epoch": 89375,
        "meta_bstar": 0.00027012829,
        "meta_mean_motion_dot": 1.32e-06,
        "meta_mean_motion_ddot": 0,
        "tle_line1": "1 31095U 99025BGR 25341.19445723  .00000132  00000+0  27013-3 0  9994",
        "tle_line2": "2 31095  98.5612 124.7436 0499881 205.1307 152.4705 13.06662639893753"
      },
      "geometry": {
        "type": "Point",
        "coordinates": [
          116.5953710618604,
          47.45100718754591
        ]
      }
    }
  ]
}